{"type":"FeatureCollection","features":[{"type":"Feature","properties":{"agency_name":"Jönköpings Länstrafik","shape_id":"1066100000081593576","route_id":"9011006031300000","agency_id":"66100000000001407","route_short_name":"313","route_type":700},"geometry":{"type":"MultiLineString","coordinates":[[[14.703626,57.507222],[14.703603,57.507194],[14.703587,57.507196],[14.703586,57.507196],[14.701674,57.507486],[14.701071,57.50758],[14.69925,57.507917],[14.698925,57.507686],[14.698483,57.507378],[14.698201,57.507128],[14.697984,57.506918],[14.697857,57.506842],[14.697774,57.50673],[14.697399,57.506236],[14.697381,57.506211],[14.697331,57.506144],[14.69733,57.506144],[14.697051,57.505772],[14.696901,57.505801],[14.695643,57.506038],[14.695513,57.506049],[14.695104,57.506082],[14.694637,57.505385],[14.694234,57.504782],[14.693822,57.504142],[14.693822,57.504142]],[[14.693822,57.504142],[14.693857,57.504074],[14.693862,57.503904],[14.693864,57.503868],[14.693864,57.503867],[14.69387,57.503652],[14.693668,57.503313],[14.694933,57.503086],[14.695145,57.503036],[14.695292,57.502987],[14.696931,57.502695],[14.698738,57.502368],[14.69917,57.50229],[14.699218,57.502282],[14.699254,57.502275],[14.699256,57.502275],[14.700368,57.502074],[14.701986,57.501779],[14.703675,57.501464],[14.704035,57.501397],[14.70416,57.501373],[14.704162,57.501373],[14.70523,57.501172],[14.706634,57.500907],[14.708349,57.5006],[14.709467,57.500384],[14.709469,57.500384],[14.709595,57.500359],[14.710182,57.500246],[14.710396,57.499752],[14.710522,57.499376],[14.710577,57.499075],[14.710593,57.498986],[14.710596,57.498973],[14.710627,57.498801],[14.710684,57.498412],[14.710716,57.497678],[14.710747,57.496988],[14.710766,57.496551],[14.710793,57.496113],[14.710797,57.496042],[14.710818,57.495566],[14.710843,57.494976],[14.710864,57.494558],[14.710881,57.494249],[14.710925,57.493965],[14.710991,57.493675],[14.711071,57.493455],[14.711176,57.49321],[14.711361,57.492865],[14.711557,57.49254],[14.711748,57.492221],[14.711891,57.491986],[14.712021,57.491792],[14.712035,57.491773],[14.712173,57.491594],[14.712299,57.491446],[14.712451,57.491285],[14.71272,57.49104],[14.713113,57.49065],[14.713386,57.490354],[14.713847,57.489877],[14.714037,57.489671],[14.714042,57.489665],[14.714156,57.489527],[14.714254,57.489379],[14.714311,57.489265],[14.714375,57.489116],[14.714411,57.488999],[14.714411,57.488998],[14.714423,57.488957],[14.714479,57.488761],[14.714531,57.488619],[14.714567,57.488521],[14.714639,57.488367],[14.714764,57.488118],[14.714957,57.487778],[14.715164,57.487389],[14.715285,57.487186],[14.715307,57.48715],[14.715448,57.486945],[14.715613,57.486752],[14.715743,57.486617],[14.715823,57.486545],[14.715942,57.486433],[14.716087,57.486315],[14.71622,57.486215],[14.716383,57.486107],[14.716559,57.485999],[14.716713,57.485903],[14.716868,57.48582],[14.717065,57.48572],[14.717289,57.485631],[14.717472,57.485555],[14.717666,57.485494],[14.717888,57.485415],[14.718279,57.485308],[14.718704,57.485199],[14.718768,57.485181],[14.71877,57.485181],[14.718974,57.485125],[14.719032,57.485109],[14.71936,57.485024],[14.719432,57.485004],[14.719668,57.484939],[14.719877,57.484873],[14.720054,57.484815],[14.720275,57.484736],[14.7205,57.484649],[14.720812,57.484529],[14.721029,57.484428],[14.721226,57.48434],[14.721426,57.484254],[14.721508,57.484227],[14.721593,57.484199],[14.721744,57.484154],[14.721895,57.484128],[14.722075,57.484102],[14.722283,57.484081],[14.722448,57.484073],[14.722651,57.484081],[14.722835,57.484093],[14.723275,57.484148],[14.724097,57.484241],[14.724509,57.484293],[14.724905,57.484343],[14.725258,57.484384],[14.725724,57.484414],[14.726267,57.48441],[14.726854,57.484394],[14.727401,57.484369],[14.727741,57.484342],[14.7282,57.484275],[14.728473,57.484219],[14.728784,57.484133],[14.729166,57.483989],[14.729743,57.483733],[14.729768,57.483721],[14.729857,57.48368],[14.729858,57.483679],[14.729962,57.48363],[14.730199,57.483481],[14.730425,57.483298],[14.730663,57.48303],[14.730872,57.482778],[14.731057,57.482572],[14.731226,57.482412],[14.731482,57.48224],[14.731635,57.482158],[14.731878,57.482051],[14.732281,57.481914],[14.732679,57.481782],[14.733157,57.481605],[14.733676,57.481381],[14.734285,57.481086],[14.734757,57.480873],[14.735185,57.480696],[14.735818,57.480457],[14.736608,57.480163],[14.737199,57.479913],[14.737634,57.479679],[14.737825,57.479553],[14.737921,57.479491],[14.737966,57.479462],[14.737967,57.479461],[14.738097,57.479378],[14.738352,57.479164],[14.738422,57.479099],[14.73851,57.47902],[14.73889,57.478671],[14.73907,57.478523],[14.739421,57.478237],[14.739757,57.477977],[14.740438,57.477498],[14.740821,57.477241],[14.741254,57.476947],[14.741763,57.476613],[14.742146,57.476338],[14.742544,57.476049],[14.74288,57.475794],[14.743206,57.475531],[14.743615,57.475181],[14.743968,57.474878],[14.744348,57.474567],[14.744895,57.474155],[14.745409,57.473769],[14.745939,57.47335],[14.746435,57.472931],[14.746555,57.472834],[14.746842,57.472625],[14.747103,57.472455],[14.747589,57.472181],[14.747852,57.472041],[14.748447,57.471733],[14.748871,57.471519],[14.749351,57.471271],[14.749745,57.471062],[14.750151,57.470829],[14.75067,57.470482],[14.751074,57.470199],[14.751442,57.469964],[14.75179,57.469772],[14.752252,57.469561],[14.752714,57.469365],[14.753089,57.469204],[14.75346,57.469033],[14.75376,57.468885],[14.754322,57.468585],[14.754788,57.468321],[14.755333,57.468],[14.755693,57.46779],[14.756023,57.467601],[14.756328,57.467451],[14.756712,57.467304],[14.756864,57.46725],[14.757156,57.467146],[14.757157,57.467146],[14.757232,57.467119],[14.757804,57.466941],[14.758062,57.467191],[14.758272,57.467394],[14.758658,57.467768],[14.759061,57.468139],[14.759382,57.468416],[14.759694,57.468665],[14.760051,57.468925],[14.760215,57.469037],[14.760426,57.469181],[14.760945,57.469504],[14.761367,57.469746],[14.761915,57.470037],[14.762508,57.470322],[14.763312,57.470662],[14.764069,57.470971],[14.764874,57.471297],[14.765823,57.471678],[14.766945,57.472139],[14.767324,57.472293],[14.768416,57.472736],[14.769645,57.473238],[14.769894,57.47334],[14.770669,57.473656],[14.771374,57.47391],[14.771868,57.474061],[14.772317,57.474185],[14.772532,57.474244],[14.772688,57.474281],[14.772783,57.474303],[14.773343,57.474433],[14.773956,57.474552],[14.774796,57.474693],[14.77577,57.474859],[14.775775,57.47486],[14.776021,57.474902],[14.776354,57.474958],[14.776973,57.475065],[14.777037,57.475076],[14.777205,57.475108],[14.777206,57.475109],[14.77741,57.475148],[14.777673,57.475206],[14.778107,57.475312],[14.778491,57.475419],[14.77885,57.475525],[14.779204,57.475639],[14.779527,57.475757],[14.779655,57.475806],[14.779752,57.475844],[14.780184,57.476023],[14.780499,57.47617],[14.780873,57.476349],[14.781222,57.476535],[14.781599,57.476749],[14.781913,57.476932],[14.782284,57.477185],[14.782649,57.47746],[14.782981,57.477745],[14.783285,57.478034],[14.783588,57.478374],[14.783848,57.478714],[14.78412,57.479105],[14.784518,57.479689],[14.785222,57.480709],[14.785512,57.481124],[14.785935,57.481758],[14.786868,57.483115],[14.787394,57.483863],[14.787814,57.484468],[14.788124,57.48493],[14.788502,57.485488],[14.788827,57.485948],[14.788851,57.485982],[14.789239,57.486531],[14.789498,57.486922],[14.789775,57.487321],[14.790159,57.487863],[14.790344,57.488158],[14.790353,57.488171],[14.790585,57.488481],[14.790777,57.488718],[14.790986,57.488963],[14.791274,57.48926],[14.791717,57.489712],[14.79225,57.490255],[14.792661,57.490675],[14.792956,57.490975],[14.793254,57.491277],[14.793518,57.491552],[14.79385,57.491887],[14.794325,57.492373],[14.794537,57.492595],[14.794856,57.49292],[14.795216,57.493283],[14.7956,57.493681],[14.795799,57.493879],[14.795802,57.493882],[14.796186,57.49427],[14.796247,57.494334],[14.796278,57.494366],[14.796279,57.494367],[14.796542,57.494641],[14.796836,57.494934],[14.79696,57.495058],[14.797426,57.495543],[14.798027,57.496171],[14.798149,57.496294],[14.798487,57.496634],[14.798716,57.496861],[14.79907,57.497228],[14.799321,57.497529],[14.799656,57.497973],[14.799888,57.498376],[14.800014,57.498654],[14.800144,57.499019],[14.800215,57.499297],[14.800246,57.499526],[14.800281,57.49975],[14.800292,57.499908],[14.800281,57.500118],[14.800268,57.500462],[14.800214,57.501121],[14.800168,57.502098],[14.800129,57.502695],[14.800094,57.503092],[14.800048,57.503405],[14.800003,57.503636],[14.799945,57.503849],[14.799881,57.504014],[14.799778,57.504227],[14.799672,57.504431],[14.799527,57.504671],[14.799335,57.504939],[14.799125,57.505183],[14.79902,57.505304],[14.79897,57.505362],[14.798949,57.505382],[14.798791,57.505536],[14.798581,57.505734],[14.798184,57.506058],[14.797615,57.506505],[14.79697,57.507023],[14.79649,57.507399],[14.796014,57.507779],[14.795605,57.5081],[14.795177,57.508437],[14.794539,57.508946],[14.793874,57.509468],[14.793544,57.509728],[14.793185,57.510009],[14.793071,57.510098],[14.792739,57.510362],[14.792514,57.510541],[14.792513,57.510541],[14.792405,57.510627],[14.792077,57.510894],[14.791862,57.51107],[14.791854,57.511077],[14.791412,57.511429],[14.790944,57.5118],[14.790266,57.512331],[14.789839,57.512659],[14.7895,57.512946],[14.78909,57.513299],[14.788874,57.513511],[14.788619,57.513771],[14.788408,57.514003],[14.788233,57.514204],[14.787949,57.514555],[14.787906,57.514608],[14.787549,57.515054],[14.787159,57.515547],[14.786857,57.515919],[14.786699,57.516117],[14.786495,57.516383],[14.786307,57.516646],[14.786127,57.516961],[14.78594,57.517291],[14.785702,57.51775],[14.785422,57.518314],[14.785251,57.518656],[14.784821,57.51949],[14.784508,57.520084],[14.784231,57.520604],[14.783875,57.52129],[14.783565,57.521923],[14.783494,57.522071],[14.78337,57.522329],[14.783178,57.522678],[14.783056,57.522911],[14.782955,57.523109],[14.782867,57.523326],[14.782799,57.523509],[14.782723,57.523749],[14.782656,57.523979],[14.782612,57.524203],[14.782579,57.52444],[14.78257,57.524645],[14.782569,57.524863],[14.782574,57.525124],[14.782624,57.525466],[14.782655,57.525629],[14.782695,57.525809],[14.782756,57.525993],[14.782835,57.526212],[14.783012,57.526616],[14.783154,57.526885],[14.783305,57.527117],[14.783501,57.52742],[14.783507,57.527429],[14.783732,57.527777],[14.783921,57.528073],[14.784058,57.528295],[14.784394,57.5288],[14.784523,57.529005],[14.784557,57.529059],[14.784557,57.529059],[14.784625,57.529168],[14.784636,57.529185],[14.784925,57.529621],[14.785055,57.529809],[14.78532,57.53023],[14.785575,57.530609],[14.785674,57.530783],[14.785887,57.531148],[14.786024,57.53141],[14.786194,57.531811],[14.786285,57.532048],[14.786487,57.532589],[14.78682,57.533595],[14.786995,57.534107],[14.787201,57.534673],[14.787454,57.535431],[14.787666,57.536073],[14.787827,57.536543],[14.787975,57.536895],[14.788157,57.537266],[14.788384,57.53766],[14.788591,57.538016],[14.788893,57.538492],[14.78917,57.538936],[14.789412,57.53934],[14.789565,57.539651],[14.789645,57.539865],[14.789722,57.540106],[14.789812,57.540431],[14.789872,57.540756],[14.789887,57.541064],[14.789883,57.541126],[14.789865,57.541503],[14.789864,57.541574],[14.789816,57.542148],[14.789798,57.542482],[14.789697,57.543796],[14.789654,57.544634],[14.789651,57.544679],[14.789651,57.54468],[14.78965,57.5447],[14.789649,57.54472],[14.789561,57.545723],[14.789602,57.546225],[14.789694,57.546623],[14.789902,57.547131],[14.790181,57.547539],[14.790462,57.547902],[14.790949,57.548393],[14.791357,57.548734],[14.791906,57.549133],[14.793013,57.549889],[14.793374,57.550117],[14.794341,57.550764],[14.795442,57.551508],[14.796774,57.552419],[14.797877,57.553141],[14.798557,57.553603],[14.798754,57.553739],[14.7989,57.553839],[14.799433,57.554208],[14.799538,57.554278],[14.799569,57.554299],[14.79957,57.5543],[14.800351,57.554826],[14.80122,57.55541],[14.802586,57.556337],[14.802889,57.556542],[14.803322,57.556835],[14.803658,57.557082],[14.803997,57.557352],[14.804386,57.557681],[14.804673,57.557963],[14.804935,57.558243],[14.805149,57.558476],[14.805332,57.558702],[14.805524,57.558942],[14.805726,57.559236],[14.805876,57.559468],[14.806044,57.559737],[14.806052,57.55975],[14.806878,57.561271],[14.807375,57.562176],[14.807501,57.562405],[14.80751,57.562422],[14.807511,57.562423],[14.807553,57.5625],[14.807675,57.562726],[14.808497,57.564251],[14.808614,57.564499],[14.808681,57.564651],[14.808765,57.564845],[14.809167,57.566239],[14.809765,57.568396],[14.810106,57.569628],[14.810108,57.569636],[14.810295,57.570319],[14.810361,57.570529],[14.810444,57.570824],[14.810519,57.571047],[14.81059,57.57124],[14.810594,57.571251],[14.810696,57.57147],[14.810809,57.57168],[14.810979,57.571929],[14.811275,57.5723],[14.811422,57.572483],[14.811586,57.572688],[14.811587,57.572689],[14.811608,57.572715],[14.811643,57.572758],[14.811854,57.573027],[14.812804,57.574236],[14.812916,57.574395],[14.812937,57.574429],[14.81302,57.574565],[14.813151,57.574772],[14.813251,57.574949],[14.813357,57.575146],[14.813579,57.575594],[14.814148,57.576743],[14.814375,57.577201],[14.814519,57.5775],[14.814666,57.577761],[14.814784,57.577936],[14.814886,57.578073],[14.814939,57.578129],[14.81499,57.578182],[14.81511,57.578294],[14.815222,57.578398],[14.815347,57.57847],[14.815519,57.57861],[14.815666,57.578727],[14.815943,57.578884],[14.816166,57.578989],[14.816389,57.579088],[14.816707,57.579207],[14.817266,57.579412],[14.817876,57.579608],[14.819512,57.580165],[14.819677,57.580221],[14.819912,57.580322],[14.8201,57.580405],[14.820199,57.580477],[14.820279,57.580535],[14.82028,57.580535],[14.820472,57.580674],[14.820642,57.580822],[14.82079,57.581007],[14.820879,57.581132],[14.82097,57.581281],[14.821023,57.58137],[14.821059,57.5815],[14.821087,57.58159],[14.821088,57.581591],[14.821107,57.581653],[14.82115,57.581972],[14.821151,57.581973],[14.821165,57.582081],[14.821192,57.58208],[14.821216,57.582081],[14.821263,57.582088],[14.821288,57.582096],[14.82131,57.582105],[14.821329,57.582117],[14.821345,57.582129],[14.821357,57.582142],[14.821363,57.582153],[14.821368,57.582178],[14.821367,57.58219],[14.821362,57.582204],[14.821352,57.582219],[14.821337,57.582235],[14.821319,57.582248],[14.821297,57.58226],[14.821272,57.582269],[14.821244,57.582276],[14.821216,57.582281],[14.821188,57.582284],[14.821162,57.582285],[14.821138,57.582284],[14.821114,57.58228],[14.821091,57.582275],[14.821069,57.582268],[14.821048,57.582259],[14.821031,57.582247],[14.821016,57.582235],[14.821005,57.582222],[14.820996,57.582207],[14.820994,57.582201],[14.820736,57.582241],[14.820475,57.58228],[14.819627,57.582389],[14.819237,57.582446],[14.81903,57.582476],[14.817974,57.58263],[14.816558,57.582828],[14.816487,57.582838],[14.81604,57.582898],[14.814128,57.583156],[14.813563,57.583231],[14.81315,57.583295],[14.812766,57.583357],[14.812201,57.583469],[14.811633,57.583594],[14.811087,57.583734],[14.810732,57.583835],[14.810421,57.583936],[14.810062,57.584059],[14.8098,57.584161],[14.809401,57.584327],[14.809113,57.584458],[14.808735,57.584649],[14.808365,57.584862],[14.808243,57.584941],[14.807471,57.585445],[14.80641,57.586156],[14.806205,57.586294],[14.805444,57.586827],[14.805162,57.587042],[14.804738,57.587382],[14.803129,57.588714],[14.802909,57.588889],[14.802655,57.589066],[14.802399,57.589223],[14.802052,57.589421],[14.801984,57.589454],[14.801428,57.589723],[14.79953,57.590573],[14.798874,57.59087],[14.798101,57.591217],[14.797221,57.591611],[14.796865,57.59177],[14.796525,57.591914],[14.796134,57.592067],[14.795754,57.592198],[14.795248,57.592357],[14.794714,57.592508],[14.794185,57.592656],[14.793464,57.592856],[14.793391,57.592873],[14.793377,57.592877],[14.792883,57.593015],[14.792251,57.593183],[14.79183,57.593285],[14.791463,57.593365],[14.791027,57.59345],[14.790629,57.593518],[14.790229,57.59358],[14.789833,57.593634],[14.789255,57.593705],[14.788649,57.593781],[14.787997,57.593861],[14.787277,57.593949],[14.786696,57.594019],[14.786107,57.594089],[14.785402,57.594172],[14.785336,57.59418],[14.785285,57.594186],[14.785283,57.594186],[14.785009,57.594219],[14.78446,57.594283],[14.783737,57.594367],[14.783127,57.594434],[14.782488,57.59452],[14.781895,57.594607],[14.781525,57.594671],[14.781101,57.594751],[14.780742,57.594825],[14.780373,57.594908],[14.779985,57.594997],[14.779608,57.595088],[14.779107,57.595205],[14.778738,57.59529],[14.778399,57.595361],[14.778021,57.595437],[14.777488,57.595531],[14.777149,57.595586],[14.777148,57.595586],[14.77703,57.595605],[14.776901,57.595624],[14.776595,57.595669],[14.776003,57.59575],[14.775452,57.595822],[14.774693,57.595927],[14.774002,57.596018],[14.773296,57.596112],[14.772686,57.596194],[14.772085,57.596274],[14.771546,57.596347],[14.771148,57.596393],[14.770794,57.596422],[14.770405,57.596448],[14.770017,57.596467],[14.769647,57.596476],[14.769298,57.596476],[14.768898,57.596467],[14.76861,57.596458],[14.768205,57.596435],[14.767856,57.596407],[14.767511,57.596368],[14.767265,57.596336],[14.767083,57.596311],[14.76663,57.596242],[14.765984,57.596127],[14.765597,57.596058],[14.765215,57.595997],[14.764868,57.595943],[14.764477,57.5959],[14.764168,57.595872],[14.763822,57.595849],[14.763441,57.595834],[14.763149,57.595828],[14.762843,57.595829],[14.762516,57.595832],[14.76213,57.595834],[14.761626,57.595842],[14.761006,57.595847],[14.760391,57.595854],[14.759632,57.595862],[14.759017,57.595872],[14.758568,57.595878],[14.758502,57.595881],[14.758238,57.59589],[14.757675,57.595921],[14.757258,57.595952],[14.756962,57.595986],[14.756612,57.596035],[14.756301,57.596086],[14.755984,57.596148],[14.75561,57.596229],[14.755343,57.596298],[14.755003,57.596392],[14.754676,57.596495],[14.754323,57.596618],[14.754002,57.596742],[14.75368,57.596889],[14.753288,57.597086],[14.752979,57.597264],[14.752721,57.597434],[14.752476,57.597615],[14.752255,57.597797],[14.752152,57.59788],[14.751976,57.598051],[14.751778,57.598266],[14.751489,57.598629],[14.751264,57.598928],[14.751097,57.599152],[14.750896,57.59942],[14.750736,57.599637],[14.750528,57.599913],[14.750334,57.600195],[14.750241,57.600345],[14.750167,57.600501],[14.750161,57.600514],[14.750161,57.600515],[14.750126,57.600594],[14.750099,57.600656],[14.749996,57.600894],[14.749955,57.601016],[14.749846,57.601277],[14.749722,57.601611],[14.749594,57.601956],[14.749411,57.602428],[14.74932,57.602672],[14.749165,57.60308],[14.749043,57.603406],[14.748873,57.603847],[14.748689,57.604263],[14.74857,57.604482],[14.748406,57.604774],[14.74826,57.605003],[14.748052,57.605299],[14.74782,57.605606],[14.747689,57.60576],[14.747392,57.606097],[14.747177,57.606319],[14.746937,57.606544],[14.746699,57.606747],[14.746503,57.606905],[14.7463,57.607059],[14.745949,57.607308],[14.745717,57.607481],[14.745356,57.607731],[14.745086,57.607918],[14.744711,57.608179],[14.744365,57.608419],[14.744023,57.608659],[14.743744,57.608847],[14.743353,57.609123],[14.742971,57.609388],[14.742677,57.609591],[14.742233,57.609902],[14.74188,57.610143],[14.741643,57.610305],[14.741382,57.610487],[14.740993,57.61076],[14.740616,57.611023],[14.740249,57.611279],[14.739861,57.611538],[14.739517,57.611777],[14.739226,57.611973],[14.738889,57.612212],[14.738609,57.612406],[14.738358,57.61258],[14.738121,57.612741],[14.737865,57.612908],[14.737532,57.613121],[14.737265,57.613275],[14.737159,57.613337],[14.73665,57.613624],[14.736289,57.61383],[14.735961,57.614018],[14.735691,57.614171],[14.735386,57.614343],[14.735043,57.61454],[14.734717,57.614717],[14.734404,57.614899],[14.734098,57.615071],[14.733865,57.615199],[14.733835,57.615216],[14.733616,57.615344],[14.733454,57.61543],[14.733259,57.615542],[14.733224,57.615562],[14.732945,57.61572],[14.732807,57.6158],[14.732594,57.615919],[14.732387,57.616035],[14.732217,57.616138],[14.732072,57.616219],[14.731866,57.616355],[14.731743,57.616446],[14.731624,57.616537],[14.731479,57.616656],[14.731346,57.61677],[14.731191,57.616924],[14.731117,57.616999],[14.730916,57.61723],[14.730759,57.61743],[14.730622,57.617635],[14.730503,57.617841],[14.730401,57.618047],[14.730307,57.618261],[14.730165,57.618579],[14.729964,57.619027],[14.729808,57.619393],[14.729661,57.619709],[14.729456,57.62016],[14.729392,57.620308],[14.729301,57.620521],[14.729198,57.620749],[14.729102,57.620959],[14.729048,57.621075],[14.729001,57.621171],[14.728961,57.621252],[14.728961,57.621253],[14.728943,57.621291],[14.72888,57.621401],[14.728824,57.621491],[14.728814,57.621508],[14.728733,57.621634],[14.72865,57.621735],[14.72859,57.621803],[14.728497,57.621904],[14.728403,57.622007],[14.728253,57.622141],[14.728099,57.622274],[14.727949,57.622387],[14.727789,57.622503],[14.727611,57.622624],[14.727435,57.622738],[14.727362,57.622781],[14.727084,57.622941],[14.726846,57.623069],[14.72664,57.62317],[14.726339,57.62331],[14.72588,57.623525],[14.725361,57.62376],[14.724862,57.623989],[14.724533,57.624142],[14.724054,57.624358],[14.723609,57.624567],[14.723268,57.624722],[14.722831,57.624924],[14.722354,57.625141],[14.72189,57.625354],[14.721476,57.625543],[14.721467,57.625547],[14.721272,57.62564],[14.720613,57.625938],[14.719997,57.626221],[14.719482,57.626458],[14.718953,57.626709],[14.717966,57.627162],[14.717335,57.627449],[14.717334,57.62745],[14.71724,57.627492],[14.717228,57.627498],[14.717048,57.62758],[14.716252,57.627943],[14.715386,57.628342],[14.714647,57.628681],[14.713987,57.629005],[14.713647,57.629211],[14.71334,57.629421],[14.713096,57.629614],[14.712929,57.629756],[14.712785,57.629887],[14.712689,57.629974],[14.712614,57.630055],[14.712527,57.630147],[14.712406,57.630276],[14.712325,57.630381],[14.712252,57.630482],[14.712152,57.630629],[14.712056,57.630778],[14.711981,57.63092],[14.711899,57.631102],[14.711818,57.631306],[14.711808,57.631334],[14.711807,57.631336],[14.711656,57.631741],[14.711533,57.632076],[14.71134,57.632599],[14.711264,57.632807],[14.711201,57.632978],[14.711148,57.633151],[14.711143,57.633179],[14.711117,57.633317],[14.711097,57.633468],[14.711083,57.63356],[14.711066,57.633767],[14.711068,57.633913],[14.711069,57.634042],[14.711083,57.634272],[14.711079,57.634507],[14.711085,57.634587],[14.711086,57.634599],[14.711112,57.634974],[14.711117,57.635046],[14.711133,57.63514],[14.711158,57.635428],[14.711211,57.636031],[14.711209,57.636219],[14.711167,57.636587],[14.711124,57.636731],[14.711028,57.636995],[14.710979,57.637113],[14.710834,57.637354],[14.710808,57.637401],[14.710786,57.637439],[14.710738,57.637512],[14.710665,57.637607],[14.710577,57.637705],[14.710277,57.638019],[14.710073,57.638197],[14.709962,57.638283],[14.709924,57.638312],[14.709907,57.638323],[14.709906,57.638324],[14.709754,57.638423],[14.709616,57.638511],[14.709392,57.638654],[14.708961,57.638872],[14.708725,57.638981],[14.707572,57.639471],[14.706856,57.639775],[14.706752,57.639819],[14.70675,57.63982],[14.706346,57.639991],[14.706072,57.640106],[14.705825,57.640209],[14.705379,57.640395],[14.705244,57.640457],[14.70506,57.640546],[14.70497,57.640612],[14.704948,57.640626],[14.704853,57.640713],[14.704723,57.64089],[14.70463,57.641096],[14.704591,57.641234],[14.704595,57.641373],[14.704728,57.642332],[14.704728,57.642333],[14.704741,57.642427],[14.704789,57.642776],[14.70479,57.642884],[14.70476,57.642971],[14.704219,57.644062],[14.704216,57.644068],[14.704212,57.644076],[14.703965,57.644576],[14.703961,57.644585],[14.70383,57.644852],[14.703535,57.645448],[14.703333,57.645855],[14.703284,57.646144],[14.703295,57.646313],[14.703366,57.646526],[14.703501,57.646587],[14.703607,57.646757],[14.703824,57.647012],[14.703934,57.647133],[14.704066,57.647253],[14.704148,57.647375],[14.704154,57.647386],[14.704158,57.647395],[14.704216,57.647512],[14.704232,57.647613],[14.704181,57.647785],[14.704175,57.647794],[14.704055,57.647974],[14.703878,57.648121],[14.703688,57.64825],[14.70335,57.648478],[14.702993,57.648717],[14.702757,57.648899],[14.702183,57.649366],[14.702174,57.649373],[14.702043,57.649479],[14.70193,57.649591],[14.70164,57.649828],[14.701622,57.649843],[14.701509,57.64995],[14.701499,57.650013],[14.701556,57.650054],[14.701593,57.650069],[14.701655,57.650094],[14.702172,57.650265],[14.702314,57.650333],[14.702398,57.650401],[14.702439,57.650468],[14.702468,57.650774],[14.702466,57.650857],[14.702464,57.650897],[14.702468,57.650941],[14.702546,57.650948],[14.702615,57.650967],[14.702656,57.650997],[14.702674,57.651029],[14.702667,57.651063],[14.702645,57.651097],[14.702592,57.651126],[14.702524,57.651142],[14.702452,57.651144],[14.702394,57.651138],[14.702341,57.651117],[14.702308,57.65109],[14.702279,57.651049],[14.7022,57.65105],[14.701834,57.651059],[14.701698,57.651049],[14.701606,57.651026],[14.70156,57.651011],[14.70116,57.650869],[14.700756,57.650728],[14.700723,57.650718],[14.700721,57.650717],[14.700558,57.650666],[14.700349,57.650599],[14.699516,57.650302],[14.699322,57.650234],[14.699159,57.650365],[14.698926,57.65055],[14.698926,57.650551],[14.698628,57.650789],[14.698376,57.650989],[14.697534,57.650695],[14.697401,57.650658],[14.697324,57.65065],[14.697293,57.650646],[14.697189,57.650648],[14.697098,57.650664],[14.697096,57.650664],[14.697069,57.650669],[14.696978,57.650704],[14.696884,57.650771],[14.696384,57.651214],[14.695814,57.651719],[14.695708,57.651805],[14.695707,57.651805],[14.695186,57.652227],[14.695041,57.652346],[14.695041,57.652346],[14.694942,57.652428],[14.694814,57.652517],[14.694342,57.652826],[14.69418,57.652935],[14.694179,57.652936],[14.694083,57.653001],[14.693944,57.65311],[14.693363,57.653567],[14.693362,57.653568],[14.693187,57.653706],[14.693027,57.653826],[14.692825,57.654026],[14.692751,57.654133],[14.692672,57.653994],[14.692666,57.653917],[14.692724,57.65385],[14.693161,57.653498],[14.693162,57.653497],[14.693342,57.653353],[14.694007,57.652817],[14.694075,57.652803],[14.694106,57.652799],[14.694123,57.652798],[14.694163,57.652794],[14.694257,57.652796],[14.694342,57.652826],[14.694185,57.652932],[14.694175,57.652939],[14.694083,57.653001]],[[14.693944,57.65311],[14.693727,57.653281],[14.693367,57.653564],[14.693358,57.653571],[14.693187,57.653706]],[[14.692825,57.654026],[14.692752,57.654133],[14.6927,57.654222],[14.692659,57.654338],[14.692667,57.654464],[14.69274,57.654577],[14.692857,57.654665],[14.692887,57.654687],[14.693281,57.654847],[14.693295,57.654853],[14.693311,57.654859],[14.693469,57.654924],[14.694536,57.655317],[14.69455,57.655322],[14.694722,57.655385],[14.694921,57.655454],[14.695819,57.655765],[14.696013,57.655833],[14.696362,57.655959],[14.696905,57.656157],[14.696988,57.65621],[14.697083,57.656343],[14.69719,57.656494],[14.697263,57.656593],[14.69757,57.657011],[14.697576,57.657019],[14.697978,57.657566],[14.698254,57.657906],[14.698536,57.65819],[14.698642,57.658283],[14.698737,57.658357],[14.699016,57.658559],[14.699165,57.658673],[14.699174,57.658681],[14.699189,57.658692],[14.699461,57.658866],[14.699561,57.658928],[14.699572,57.658935],[14.69971,57.65902],[14.699804,57.659076],[14.69984,57.659098],[14.700346,57.659344],[14.7006,57.659438],[14.701142,57.659609],[14.701253,57.659639],[14.70137,57.659671],[14.701404,57.659645],[14.701452,57.65963],[14.701516,57.659625],[14.70158,57.659629],[14.701634,57.659641],[14.701677,57.659668],[14.701699,57.659704],[14.701698,57.659738],[14.701683,57.659768],[14.701638,57.659791],[14.701571,57.65981],[14.701494,57.65981],[14.701434,57.659802],[14.701384,57.659866],[14.701378,57.659877],[14.701338,57.659939],[14.701292,57.660071],[14.701221,57.660321],[14.70096,57.66141],[14.700957,57.661419],[14.70093,57.661534],[14.700748,57.66249],[14.700746,57.662499],[14.700631,57.663102],[14.70063,57.663111],[14.700611,57.663208],[14.700587,57.663339],[14.700585,57.663348],[14.700303,57.664853],[14.700259,57.665097],[14.700257,57.665106],[14.700071,57.666132],[14.69993,57.66687],[14.699921,57.666915],[14.700147,57.666926],[14.700434,57.666941],[14.701976,57.667021],[14.70199,57.667061],[14.702151,57.667228],[14.702187,57.667255],[14.702228,57.667271],[14.70228,57.667284],[14.702615,57.667301],[14.702609,57.667331]]]}}]}